ONEWEB-0126             
1 47272U 20100Q   24068.51989456  .00000172  00000+0  44296-3 0  9999
2 47272  87.9032 155.9691 0001766 109.5558 250.5761 13.12445018155749
ONEWEB-0127             
1 47273U 20100R   24068.48097888  .00000004  00000+0 -23357-4 0  9996
2 47273  87.9035 156.0017 0001800 109.5662 250.5661 13.12441016155767
ONEWEB-0128             
1 47274U 20100S   24068.50321692 -.00000321  00000+0 -92786-3 0  9997
2 47274  87.9041 155.9944 0001642  98.1207 262.0108 13.12442772155780
ONEWEB-0129             
1 47275U 20100T   24068.48256321 -.00000032  00000+0 -12558-3 0  9999
2 47275  87.9036 155.9719 0001869 158.2815 201.8393 13.12440334155711
ONEWEB-0130             
1 47276U 20100U   24068.51116125 -.00000247  00000+0 -72102-3 0  9990
2 47276  87.9035 155.9756 0001706 104.9287 255.2030 13.12442581155686
ONEWEB-0131             
1 47277U 20100V   24068.50796818 -.00000218  00000+0 -64145-3 0  9999
2 47277  87.9036 155.9883 0001815 102.2724 257.8608 13.12441917155723
ONEWEB-0132             
1 47278U 20100W   24068.53657544  .00000438  00000+0  11821-2 0  9999
2 47278  87.9038 155.9848 0002057 100.0319 260.1042 13.12442393155629
ONEWEB-0133             
1 47279U 20100X   24068.62870799  .00000192  00000+0  49714-3 0  9999
2 47279  87.9030 155.9708 0001885 101.4442 258.6899 13.12442433155792
